
STARLINK-11498 [DTC]    
1 62276U 24237K   25014.49058270  .00003571  00000+0  23375-4 0  9997
2 62276  42.9993  64.2559 0002561 284.4698  75.5888 15.77861531  7111
STARLINK-11484 [DTC]    
1 62277U 24237L   25014.54900756  .00002127  00000+0  15082-4 0  9991
2 62277  42.9995  63.8336 0001133 289.1789  70.8958 15.77857537  7127
STARLINK-11487 [DTC]    
1 62278U 24237M   25014.41751157 -.00001362  00000+0 -49552-5 0  9999
2 62278  42.9990  64.5615 0001751 248.0677 112.0007 15.77878536  7101
STARLINK-11499 [DTC]    
1 62279U 24237N   25014.58334491 -.01050661  00000+0 -81853-2 0  9990
2 62279  42.9993  63.5238 0001249 279.8772 315.8031 15.73331389  6032
STARLINK-33548          
1 62280U 24237P   25014.54036445 -.00000317  00000+0 -32101-6 0  9994
2 62280  43.0019  69.9792 0001514 249.6094 110.4600 15.40686219  7016
STARLINK-33544          
1 62281U 24237Q   25014.44417926 -.00003005  00000+0 -64729-4 0  9997
2 62281  43.0049  70.1121 0001814 265.3494  94.7155 15.40687589  7001
STARLINK-33560          
1 62282U 24237R   25014.58334491  .00022883  00000+0  55448-3 0  9998
2 62282  43.0006  69.0981 0001636 284.8762 215.2469 15.40641270  6039
STARLINK-33547          
1 62283U 24237S   25014.52467599 -.00002453  00000+0 -51450-4 0  9992
2 62283  43.0057  69.8607 0002554 270.8798  89.1766 15.40701646  7014
STARLINK-33563          
1 62284U 24237T   25014.58334491  .00092222  00000+0  21930-2 0  9992
2 62284  43.0009  68.9772 0001453 244.8296 304.9747 15.40636058  6038
STARLINK-33550          
1 62285U 24237U   25014.56710122  .00000580  00000+0  21164-4 0  9997
2 62285  43.0057  69.3074 0002050 256.4064 103.6565 15.40696534  7025
STARLINK-33564          
1 62286U 24237V   25014.25863735  .00001030  00000+0  31920-4 0  9995
2 62286  43.0057  71.2999 0002414 271.5150  88.5430 15.40700289  6970
STARLINK-33546          
1 62287U 24237W   25014.58334491  .00092671  00000+0  22031-2 0  9996
2 62287  43.0008  69.0363 0001445 266.5839 258.3426 15.40641826  6038
STARLINK-33565          
1 62288U 24237X   25014.46656955 -.00000440  00000+0 -32496-5 0  9990
2 62288  43.0031  70.2849 0002041 264.6566  95.4058 15.40694895  7000
STARLINK-33549          
1 62289U 24237Y   25014.51347864 -.00001031  00000+0 -17408-4 0  9995
2 62289  43.0054  69.7683 0002396 255.7759 104.2832 15.40693478  7019
GJZ 01                  
1 62290U 24238A   25013.68241185 -.00000027  00000+0  15868-3 0  9994
2 62290  59.9124  50.7411 0014045 263.4504  96.4885 13.34581610  4317
GJZ 02                  
1 62291U 24238B   25014.49757556  .00000120  00000+0  10845-3 0  9992
2 62291  59.9148  31.8955 0021751 348.7494  11.3048 14.24932765  4727
GJZ 03                  
1 62292U 24238C   25014.57489820  .00000073  00000+0  20033-3 0  9995
2 62292  59.9137  40.6384 0013843 308.6020  51.3748 13.75104130  4568
GJZ 04                  
1 62293U 24238D   25014.57777755  .00000016  00000+0  14018-3 0  9996
2 62293  59.9137  40.6499 0011478 322.6772  37.3437 13.75099900  4587
GJZ 05                  
1 62294U 24238E   25014.57649927  .00000023  00000+0  14770-3 0  9999
2 62294  59.9125  40.6423 0011596 321.0558  38.9613 13.75097340  4587
YODAKA                  
1 62295U 98067XB  25014.20761760  .00188073  00000+0  19537-2 0  9998
2 62295  51.6352 348.1549 0015086 105.5118 254.7543 15.63350170  5605
1998-067XC              
1 62296U 98067XC  25014.18743507  .00101959  00000+0  12887-2 0  9994
2 62296  51.6364 348.7720 0014451  93.7244 266.5401 15.58601536  5578
1998-067XD              
1 62297U 98067XD  25014.16065384  .00152551  00000+0  17073-2 0  9999
2 62297  51.6356 348.5933 0015450  97.9358 262.3390 15.61559189  5577
YOMOGI                  
1 62298U 98067XE  25014.31509204  .00104500  00000+0  13137-2 0  9999
2 62298  51.6361 348.1243 0014394  94.9048 265.3588 15.58733777  5590
ONGLAISAT               
1 62299U 98067XF  25014.48255656  .00161171  00000+0  17815-2 0  9991
2 62299  51.6364 346.9948 0013749 101.8815 258.3722 15.61878375  5607
STARLINK-32648          
1 62301U 24239A   25014.58334491 -.00037967  00000+0 -94343-3 0  9990
2 62301  53.1602 346.3381 0001322  92.0865  12.0427 15.39635107  5143
STARLINK-32594          
1 62302U 24239B   25014.58334491 -.01280746  00000+0 -13464-1 0  9990
2 62302  53.1605 341.9216 0000878  94.9268  29.0370 15.66533387  5117
STARLINK-32621          
1 62303U 24239C   25014.58334491 -.00014417  00000+0 -35094-3 0  9995
2 62303  53.1592 346.1805 0001602 108.7589  74.4500 15.39634713  4977
STARLINK-32597          
1 62304U 24239D   25014.18902557  .00002683  00000+0  77018-4 0  9999
2 62304  53.1607 348.3479 0001184 109.7744 250.3389 15.39626135  5076
STARLINK-32649          
1 62305U 24239E   25014.19366879  .00001712  00000+0  52758-4 0  9998
2 62305  53.1628 348.3773 0001124  75.7143 284.3987 15.39623548  5072
STARLINK-32633          
1 62306U 24239F   25014.58334491 -.01553532  00000+0 -34841-1 0  9992
2 62306  53.1596 346.0223 0001233  85.9101 176.6201 15.45935361  5023
STARLINK-32646          
1 62307U 24239G   25014.58334491 -.00044933  00000+0 -11191-2 0  9996
2 62307  53.1598 346.2825 0001369 118.4379  13.2803 15.39642677  5140
STARLINK-32706          
1 62308U 24239H   25014.58334491 -.01527184  00000+0 -40284-1 0  9996
2 62308  53.1592 346.0800 0001204  92.9523 140.5700 15.41118545  5023
STARLINK-32678          
1 62309U 24239J   25014.58334491 -.00036596  00000+0 -90900-3 0  9990
2 62309  53.1599 346.2852 0001282  95.8498  34.0503 15.39629588  5028
STARLINK-32696          
1 62310U 24239K   25014.30923834 -.00000383  00000+0  39319-6 0  9991
2 62310  53.1604 347.6763 0001100  86.0779 274.0352 15.39620375  5096
STARLINK-32700          
1 62311U 24239L   25014.31387912  .00002270  00000+0  66687-4 0  9996
2 62311  53.1606 347.7079 0001378  76.4275 283.6883 15.39632419  5098
STARLINK-32698          
1 62312U 24239M   25014.58334491 -.00471605  00000+0 -12397-1 0  9990
2 62312  53.1593 346.0807 0001265  93.2342 139.5185 15.39930490  5030
STARLINK-32634          
1 62313U 24239N   25014.18436576  .00000826  00000+0  30629-4 0  9996
2 62313  53.1619 348.3155 0001776 115.3582 244.7606 15.39626516  5072
STARLINK-32651          
1 62314U 24239P   25014.46865758 -.00181629  00000+0 -34203-2 0  9999
2 62314  53.1596 346.5346 0002041  89.6422 270.4820 15.48579846  5124
STARLINK-32627          
1 62315U 24239Q   25014.17066509  .00090615  00000+0  10272-2 0  9997
2 62315  53.1598 346.7873 0001424  86.7216 273.3962 15.61660451  5090
STARLINK-32596          
1 62316U 24239R   25014.58334491 -.00046761  00000+0 -11656-2 0  9993
2 62316  53.1594 346.2295 0001456 100.0032  57.4803 15.39635404  5035
STARLINK-32519          
1 62317U 24239S   25014.58334491 -.01499276  00000+0 -32849-1 0  9994
2 62317  53.1596 345.9775 0001140 134.5512 149.2841 15.46499879  5036
STARLINK-32576          
1 62318U 24239T   25014.20884861  .00002566  00000+0  54166-4 0  9993
2 62318  53.1595 347.7576 0001291  83.8191 276.2965 15.49319832  5087
STARLINK-32527          
1 62319U 24239U   25014.58334491 -.00157452  00000+0 -39955-2 0  9998
2 62319  53.1589 346.1264 0001483  98.5413 110.4600 15.39714281  5093
STARLINK-32481          
1 62320U 24239V   25014.30460306  .00001089  00000+0  37218-4 0  9999
2 62320  53.1629 347.6451 0001479  84.4781 275.6393 15.39612093  5092
STARLINK-32645          
1 62321U 24239W   25014.18869451  .00001619  00000+0  50448-4 0  9999
2 62321  53.1615 348.3422 0001240  81.2080 278.9066 15.39625206  5078
STARLINK-32654          
1 62322U 24239X   25014.53048017 -.00087203  00000+0 -15942-2 0  9999
2 62322  53.1598 346.2083 0001383 102.1153 258.0010 15.49007492  5138
HULIANGWANG DIGUI-01    
1 62323U 24240A   25014.59976510  .00000063  00000+0  91379-4 0  9993
2 62323  86.5034 158.7630 0012211 216.9626 143.0675 13.37560055  3906
HULIANGWANG DIGUI-02    
1 62324U 24240B   25014.53267706  .00000056  00000+0  78226-4 0  9996
2 62324  86.5063 158.7994 0010213 215.0083 145.0389 13.37544325  3905
HULIANGWANG DIGUI-03    
1 62325U 24240C   25014.59225964  .00000065  00000+0  95257-4 0  9996
2 62325  86.5017 158.7552 0011936 210.1462 149.8994 13.37560989  3903
HULIANGWANG DIGUI-04    
1 62326U 24240D   25014.58483542  .00000060  00000+0  85774-4 0  9992
2 62326  86.5024 158.7529 0011207 211.6884 148.3584 13.37560613  3904
HULIANGWANG DIGUI-05    
1 62327U 24240E   25014.57732393  .00000062  00000+0  89277-4 0  9997
2 62327  86.5078 158.7655 0011057 207.0750 152.9816 13.37554769  3902
HULIANGWANG DIGUI-06    
1 62328U 24240F   25014.49258042  .00000086  00000+0  13173-3 0  9990
2 62328  86.5015 158.7674 0010025 210.4389 149.6173 13.39285794  3893
HULIANGWANG DIGUI-07    
1 62329U 24240G   25014.56944558  .00000072  00000+0  10442-3 0  9994
2 62329  86.4987 158.7341 0010736 215.7006 144.3420 13.40431392  3903
HULIANGWANG DIGUI-08    
1 62330U 24240H   25014.56982977  .00000071  00000+0  10602-3 0  9990
2 62330  86.5069 158.7593 0010043 204.6744 155.3918 13.37556123  3903
HULIANGWANG DIGUI-09    
1 62331U 24240J   25014.54740447  .00000061  00000+0  87318-4 0  9991
2 62331  86.5035 158.7994 0010248 199.8695 160.2049 13.37562245  3899
HULIANGWANG DIGUI-10    
1 62332U 24240K   25014.61474047  .00000059  00000+0  83676-4 0  9990
2 62332  86.5065 158.7773 0009516 205.5144 154.5529 13.37561089  3904
PIESAT-2 09             
1 62333U 24241A   25014.60576965  .00014021  00000+0  83487-3 0  9996
2 62333  97.4927 324.2101 0006029 141.9698 218.1958 15.11308447  4355
PIESAT-2 10             
1 62334U 24241B   25014.59676757  .00015880  00000+0  90726-3 0  9993
2 62334  97.4933 324.2215 0009437 150.8727 209.3032 15.12750960  4354
